{"type": "FeatureCollection", "features": [{"type": "Feature", "properties": {"st_nm": "Arunachal Pradesh"}, "geometry": {"type": "Polygon", "coordinates": [[[95.23643457993093, 26.681049602925928], [95.19593819532562, 27.036122602604937], [95.45691489611534, 27.128567643941484], [95.5356578661812, 27.263033158612824], [95.58965304565493, 27.22311370894477], [96.01486508401058, 27.36808434194981], [95.88212693447099, 27.43741812295222], [95.75838798151035, 27.72525836529556], [95.97886829769476, 27.962674039637143], [95.60765143881284, 27.952168921303446], [95.51765947302329, 27.876532069300815], [94.88546591335167, 27.737864507295996], [94.50300005874605, 27.5739846612903], [94.29151893914059, 27.59079285062422], [93.67732377262688, 26.968889845269267], [93.02263222150786, 26.914263229934036], [92.66266435834964, 27.036122602604937], [92.58842098657325, 26.96048575060231], [92.1114635678886, 26.89325299326664], [92.03272059782275, 27.07814307593973], [92.07321698242805, 27.275639300613264], [92.02147160209906, 27.458428359619617], [91.65925393979609, 27.481539619953754], [91.5670121748618, 27.584489779623997], [91.67500253380926, 27.855521832633418], [91.83248847394098, 27.807198288298405], [91.88423385426998, 27.721056317962077], [92.25995031144137, 27.86182490363364], [92.31169569177037, 27.77778395696405], [92.56592299512586, 27.819804430298845], [92.74365712756024, 27.98788632363802], [92.68516234979703, 28.11604876730914], [93.02713181979733, 28.298837826315495], [93.1981165547975, 28.317747039316153], [93.3376041017713, 28.632900589327107], [93.94055027256132, 28.67702208632864], [94.2217751656537, 29.084620677676142], [94.43775588354862, 29.22749028701444], [94.563744635654, 29.22959131068118], [94.63348840914091, 29.347248636018602], [94.80447314414106, 29.16445957701225], [95.0092048663123, 29.16866162434573], [95.45916469526009, 29.03419610967439], [95.54915666104964, 29.214884145014004], [96.08460885749749, 29.460703914022545], [96.23759519933974, 29.24219745268162], [96.3973309386162, 29.252702571015316], [96.15435263098439, 29.048903275341566], [96.23084580190552, 28.927043902670665], [96.44007712236623, 29.03419610967439], [96.6110618573664, 28.792578387999324], [96.588563865919, 28.716941535996693], [96.47382410953732, 28.67912310999538], [96.37258314802406, 28.389181843985302], [96.66730683598486, 28.46061664865445], [96.77529719493234, 28.368171607317905], [96.89903614789297, 28.378676725651605], [96.99802731026148, 28.30934294464919], [97.12851566065633, 28.349262394317247], [97.37599356657762, 28.216897903312645], [97.37824336572235, 27.908047424301913], [97.25675421190645, 27.90174435330169], [96.89678634874824, 27.611803087291616], [96.91028514361666, 27.452125288619396], [97.16901204526164, 27.126466620274744], [97.06102168631418, 27.10125433627387], [96.86528916072189, 27.189497330276936], [96.8022947846692, 27.344973081615674], [96.23309560105025, 27.277740324280003], [96.03511327631324, 27.189497330276936], [95.95637030624738, 27.061334886605813], [95.54690686190489, 26.830222283264447], [95.42316790894427, 26.68945369759289], [95.23643457993093, 26.681049602925928]]]}}, {"type": "Feature", "properties": {"st_nm": "Assam"}, "geometry": {"type": "Polygon", "coordinates": [[[95.19593819532562, 27.036122602604937], [95.08794783637816, 26.94577858493513], [94.8877157124964, 26.926869371934472], [94.80222334499632, 26.800807951930093], [94.41075829381175, 26.611715821923518], [94.32526592631167, 26.475149283585438], [94.28251974256165, 26.559190230255027], [94.01254384519297, 26.18100597024188], [93.98104665716663, 25.9225800592329], [93.78081453328487, 25.84274115989679], [93.78531413157434, 25.954095414233993], [93.68857276835057, 25.90577186989898], [93.70657116150848, 25.849044230897007], [93.33310450348182, 25.546496822886493], [93.45684345644247, 25.437243592216028], [93.47484184960038, 25.304879101211426], [93.245362336837, 25.000230669534172], [93.19136715736327, 24.80273444486064], [93.11262418729741, 24.79853239752716], [93.09687559328424, 24.58002593618623], [93.00013423006047, 24.399337900846618], [92.83139929420506, 24.39723687717988], [92.76390531986289, 24.51909624985078], [92.61091897802063, 24.250165220508098], [92.46243223446788, 24.134608918837415], [92.42193584986258, 24.250165220508098], [92.29594709775719, 24.250165220508098], [92.21270452940186, 24.24806419684136], [92.27344910630981, 24.38673175884618], [92.2329527217045, 24.502288060516864], [92.25095111486242, 24.907785628197626], [92.4984290207837, 24.86786617852957], [92.43993424302049, 25.031746024535266], [92.79315270874449, 25.28176784087729], [92.6086691788759, 25.41623335554863], [92.58842098657325, 25.55069887021997], [92.4174362515731, 25.737689976559803], [92.17220814479656, 25.664154148223915], [92.16770854650709, 25.96249950890095], [92.25770051229664, 26.027631242569882], [92.17895754223078, 26.078055810571637], [91.88648365341471, 26.027631242569882], [91.8212394782173, 26.11797526023969], [91.72224831584879, 25.954095414233993], [91.63225635005922, 25.943590295900297], [91.63450614920396, 26.021328171569664], [91.57376157229601, 26.025530218903143], [91.47702020907224, 25.85534730189723], [91.47252061078277, 25.859549349230708], [91.33528286295369, 25.832236041563092], [91.22729250400623, 25.722982810892628], [91.15529893137457, 25.849044230897007], [91.0698065638745, 25.82383194689613], [90.88532303400592, 25.949893366900515], [90.74358568788736, 25.91417596456594], [90.48035918795291, 26.015025100569446], [90.11814152564995, 25.958297461567472], [89.89766120946554, 25.727184858226106], [90.00565156841301, 25.58431524888781], [89.88866201288658, 25.559102964886932], [89.8549150257155, 25.477163041884083], [89.87066361972867, 25.97510565090139], [89.72217687617591, 26.1662988045747], [89.72217687617591, 26.25874384591125], [89.85941462400498, 26.38270424224889], [89.86166442314972, 26.38480526591563], [89.86166442314972, 26.704160863260064], [90.19463469657107, 26.769292596928995], [90.23288128203163, 26.857535590932063], [90.41511501275548, 26.901657087933597], [90.65359372209781, 26.773494644262474], [91.33978246124317, 26.779797715262696], [91.41177603387482, 26.834424330597926], [91.73124751242773, 26.81131307026379], [91.89998244828315, 26.914263229934036], [92.05746838841488, 26.847030472598366], [92.1114635678886, 26.89325299326664], [92.58842098657325, 26.96048575060231], [92.66266435834964, 27.036122602604937], [93.02263222150786, 26.914263229934036], [93.67732377262688, 26.968889845269267], [94.29151893914059, 27.59079285062422], [94.50300005874605, 27.5739846612903], [94.88546591335167, 27.737864507295996], [95.51765947302329, 27.876532069300815], [95.60765143881284, 27.952168921303446], [95.97886829769476, 27.962674039637143], [95.75838798151035, 27.72525836529556], [95.88212693447099, 27.43741812295222], [96.01486508401058, 27.36808434194981], [95.58965304565493, 27.22311370894477], [95.5356578661812, 27.263033158612824], [95.45691489611534, 27.128567643941484], [95.19593819532562, 27.036122602604937]]]}}, {"type": "Feature", "properties": {"st_nm": "Manipur"}, "geometry": {"type": "Polygon", "coordinates": [[[94.68073419118042, 25.454051781549946], [94.59974142196982, 25.189322799540744], [94.74372856723312, 25.12839311320529], [94.73922896894364, 25.017038858868087], [94.26002175111425, 24.161922226505034], [94.158780789601, 23.84676867649408], [94.01479364433771, 23.928708599496925], [93.805562323877, 23.926607575830186], [93.76056634098222, 24.000143404166074], [93.4703422513109, 23.96652702549824], [93.41409727269243, 24.075780256168706], [93.33535430262657, 24.04846694850109], [92.9843856360473, 24.126204824170458], [93.00013423006047, 24.399337900846618], [93.09687559328424, 24.58002593618623], [93.11262418729741, 24.79853239752716], [93.19136715736327, 24.80273444486064], [93.245362336837, 25.000230669534172], [93.47484184960038, 25.304879101211426], [93.60757999913997, 25.1977268942077], [93.83705951190333, 25.559102964886932], [94.30051813571956, 25.48976918388452], [94.4715028707197, 25.615830603888902], [94.68073419118042, 25.454051781549946]]]}}, {"type": "Feature", "properties": {"st_nm": "Meghalaya"}, "geometry": {"type": "Polygon", "coordinates": [[[92.43993424302049, 25.031746024535266], [92.07771658071752, 25.185120752207265], [91.64575514492766, 25.124191065871813], [91.26778888861152, 25.206130988874662], [90.44661220078183, 25.14310027887247], [89.91116000433396, 25.306980124878166], [89.81666844025494, 25.370010834880357], [89.8549150257155, 25.477163041884083], [89.88866201288658, 25.559102964886932], [90.00565156841301, 25.58431524888781], [89.89766120946554, 25.727184858226106], [90.11814152564995, 25.958297461567472], [90.48035918795291, 26.015025100569446], [90.74358568788736, 25.91417596456594], [90.88532303400592, 25.949893366900515], [91.0698065638745, 25.82383194689613], [91.15529893137457, 25.849044230897007], [91.22729250400623, 25.722982810892628], [91.33528286295369, 25.832236041563092], [91.47252061078277, 25.859549349230708], [91.47702020907224, 25.85534730189723], [91.57376157229601, 26.025530218903143], [91.63450614920396, 26.021328171569664], [91.63225635005922, 25.943590295900297], [91.72224831584879, 25.954095414233993], [91.8212394782173, 26.11797526023969], [91.88648365341471, 26.027631242569882], [92.17895754223078, 26.078055810571637], [92.25770051229664, 26.027631242569882], [92.16770854650709, 25.96249950890095], [92.17220814479656, 25.664154148223915], [92.4174362515731, 25.737689976559803], [92.58842098657325, 25.55069887021997], [92.6086691788759, 25.41623335554863], [92.79315270874449, 25.28176784087729], [92.43993424302049, 25.031746024535266]]]}}, {"type": "Feature", "properties": {"st_nm": "Mizoram"}, "geometry": {"type": "Polygon", "coordinates": [[[93.00013423006047, 24.399337900846618], [92.9843856360473, 24.126204824170458], [93.33535430262657, 24.04846694850109], [93.42984586670559, 23.577837647151398], [93.39159928124504, 23.22066362380565], [93.29935751631075, 23.00425818613146], [93.13062258045532, 23.044177635799514], [93.15986996933694, 22.909712121128173], [93.09687559328424, 22.806761961457926], [93.1981165547975, 22.277303997439525], [93.15986996933694, 22.17855588510276], [93.05187961038946, 22.199566121770154], [92.99788443091573, 22.052494465098377], [92.892143871113, 22.010473991763583], [92.70541054209968, 22.15124257743514], [92.68741214894176, 22.03988832309794], [92.59966998229694, 22.010473991763583], [92.52092701223108, 22.701710778120944], [92.37469006782305, 22.93492440512905], [92.39268846098096, 23.262684097140443], [92.26894950802033, 23.724909303823175], [92.32969408492828, 23.909799386496267], [92.29594709775719, 24.250165220508098], [92.42193584986258, 24.250165220508098], [92.46243223446788, 24.134608918837415], [92.61091897802063, 24.250165220508098], [92.76390531986289, 24.51909624985078], [92.83139929420506, 24.39723687717988], [93.00013423006047, 24.399337900846618]]]}}, {"type": "Feature", "properties": {"st_nm": "Nagaland"}, "geometry": {"type": "Polygon", "coordinates": [[[95.23643457993093, 26.681049602925928], [95.0676996440755, 26.46044211791826], [95.13519361841767, 26.380603218582152], [95.12619442183872, 26.092762976238813], [95.18468919960193, 26.078055810571637], [95.01370446460177, 25.865852420230926], [95.0497012509176, 25.75449816589372], [94.81122254157528, 25.48766816021778], [94.68073419118042, 25.454051781549946], [94.4715028707197, 25.615830603888902], [94.30051813571956, 25.48976918388452], [93.83705951190333, 25.559102964886932], [93.60757999913997, 25.1977268942077], [93.47484184960038, 25.304879101211426], [93.45684345644247, 25.437243592216028], [93.33310450348182, 25.546496822886493], [93.70657116150848, 25.849044230897007], [93.68857276835057, 25.90577186989898], [93.78531413157434, 25.954095414233993], [93.78081453328487, 25.84274115989679], [93.98104665716663, 25.9225800592329], [94.01254384519297, 26.18100597024188], [94.28251974256165, 26.559190230255027], [94.32526592631167, 26.475149283585438], [94.41075829381175, 26.611715821923518], [94.80222334499632, 26.800807951930093], [94.8877157124964, 26.926869371934472], [95.08794783637816, 26.94577858493513], [95.19593819532562, 27.036122602604937], [95.23643457993093, 26.681049602925928]]]}}, {"type": "Feature", "properties": {"st_nm": "Sikkim"}, "geometry": {"type": "Polygon", "coordinates": [[[88.75926284222766, 27.14747685694214], [88.59727730380646, 27.193699377610415], [88.43979136367474, 27.08234512327321], [88.16081626972712, 27.111759454607565], [88.01682912446383, 27.21681063794455], [88.04832631249018, 27.49414576195419], [88.20131265433241, 27.85131978529994], [88.13381867999024, 27.872330021967336], [88.14731747485868, 27.962674039637143], [88.3970451799247, 27.977381205304322], [88.64677288499072, 28.10554364897544], [88.75926284222766, 28.074028293974347], [88.88750139347778, 27.895441282301473], [88.77501143624083, 27.5634795429566], [88.90774958578042, 27.273538276946525], [88.80875842341192, 27.246224969278906], [88.75926284222766, 27.14747685694214]]]}}, {"type": "Feature", "properties": {"st_nm": "Tripura"}, "geometry": {"type": "Polygon", "coordinates": [[[92.2329527217045, 24.502288060516864], [92.27344910630981, 24.38673175884618], [92.21270452940186, 24.24806419684136], [92.29594709775719, 24.250165220508098], [92.32969408492828, 23.909799386496267], [92.26894950802033, 23.724909303823175], [91.94047883288846, 23.663979617487723], [91.97872541834901, 23.48119055848137], [91.78749249104621, 23.306805594141977], [91.8212394782173, 23.098804251134744], [91.62100735433553, 22.94332849979601], [91.45677201676959, 23.258482049806965], [91.38477844413795, 23.195451339804773], [91.32628366637474, 23.239572836806307], [91.1620483288088, 23.600948907485535], [91.23404190144043, 23.88668812616213], [91.42752462788799, 24.10939663483654], [91.59175996545392, 24.075780256168706], [91.66375353808557, 24.18503348683917], [91.76724429874356, 24.149316084504594], [91.83248847394098, 24.214447818173525], [91.91573104229633, 24.147215060837855], [91.92698003802002, 24.340509238177905], [92.0934651747307, 24.374125616845742], [92.17220814479656, 24.422449161180754], [92.15420975163865, 24.504389084183604], [92.2329527217045, 24.502288060516864]]]}}]}